QIANFAN-35              
1 61568U 24185S   26085.47062836  .00000756  00000+0  29808-3 0  9990
2 61568  88.9770  64.6759 0004752 324.4949  35.5929 14.28156706 84989
QIANFAN-36              
1 61569U 24185T   26085.44735881  .00000101  00000+0  12797-3 0  9998
2 61569  88.9736  70.2160 0008213  97.7955 262.4131 13.55617477 81972
QIANFAN-37              
1 62238U 24232B   26085.45950329  .00000112  00000+0  15542-3 0  9995
2 62238  89.0087  30.8662 0002407  92.9497 267.1929 13.51008894113171
QIANFAN-38              
1 62239U 24232C   26085.48415197  .00000102  00000+0  14027-3 0  9994
2 62239  89.0094  30.7866 0012346 255.3850 104.5932 13.51007342113238
QIANFAN-39              
1 62240U 24232D   26085.52953200  .00000487  00000+0  19963-3 0  9993
2 62240  89.0088  25.4509 0018523  96.4779 263.8523 14.25456710116175
QIANFAN-40              
1 62241U 24232E   26085.51707369  .00000116  00000+0  16200-3 0  9996
2 62241  89.0122  30.3970 0011394 264.8131  95.1720 13.51006905113609
QIANFAN-41              
1 62242U 24232F   26085.52532659  .00000111  00000+0  15280-3 0  9998
2 62242  89.0092  30.7322 0011782 250.5459 109.4419 13.51008383113265
QIANFAN-42              
1 62243U 24232G   26085.52333160  .00000458  00000+0  19074-3 0  9994
2 62243  89.0086  25.5142 0017288 101.8261 258.4872 14.24549317116143
QIANFAN-43              
1 62244U 24232H   26085.52116662  .00000108  00000+0  14962-3 0  9994
2 62244  89.0096  30.8025 0013288 256.7723 103.1946 13.51008319 81873
QIANFAN-44              
1 62245U 24232J   26085.50886654  .00000113  00000+0  15624-3 0  9990
2 62245  89.0095  30.6129 0011508 253.2581 106.7308 13.51006272113348
QIANFAN-45              
1 62246U 24232K   26085.47592609  .00000098  00000+0  13288-3 0  9997
2 62246  89.0099  30.7663 0012181 252.9767 107.0049 13.51010026113266
QIANFAN-46              
1 62247U 24232L   26085.50061017  .00000115  00000+0  15914-3 0  9994
2 62247  89.0094  30.8285 0012234 259.4143 100.5630 13.51006892113228
QIANFAN-47              
1 62248U 24232M   26085.50472426  .00000112  00000+0  15563-3 0  9992
2 62248  89.0091  30.7570 0012649 258.3552 101.6180 13.51006701113258
QIANFAN-48              
1 62249U 24232N   26085.54175875  .00000114  00000+0  15811-3 0  9993
2 62249  89.0094  30.7592 0014910 261.2617  98.6846 13.51006805113264
QIANFAN-49              
1 62250U 24232P   26085.52943639  .00000109  00000+0  14995-3 0  9990
2 62250  89.0093  30.7721 0011982 255.0070 104.9755 13.51006064 81855
QIANFAN-50              
1 62251U 24232Q   26085.48003161  .00000110  00000+0  15211-3 0  9997
2 62251  89.0099  30.7908 0013638 256.8092 103.1538 13.51007095 81879
QIANFAN-51              
1 62252U 24232R   26085.53765742  .00000108  00000+0  14933-3 0  9991
2 62252  89.0093  30.7726 0011139 260.9631  99.0259 13.51007680 81874
