[{"OBJECT_NAME":"QIANFAN-35","OBJECT_ID":"2024-185S","EPOCH":"2026-03-26T11:17:42.290304","MEAN_MOTION":14.28156706,"ECCENTRICITY":0.0004752,"INCLINATION":88.977,"RA_OF_ASC_NODE":64.6759,"ARG_OF_PERICENTER":324.4949,"MEAN_ANOMALY":35.5929,"EPHEMERIS_TYPE":0,"CLASSIFICATION_TYPE":"U","NORAD_CAT_ID":61568,"ELEMENT_SET_NO":999,"REV_AT_EPOCH":8498,"BSTAR":0.00029808,"MEAN_MOTION_DOT":7.56e-6,"MEAN_MOTION_DDOT":0},{"OBJECT_NAME":"QIANFAN-36","OBJECT_ID":"2024-185T","EPOCH":"2026-03-26T10:44:11.801184","MEAN_MOTION":13.55617477,"ECCENTRICITY":0.0008213,"INCLINATION":88.9736,"RA_OF_ASC_NODE":70.216,"ARG_OF_PERICENTER":97.7955,"MEAN_ANOMALY":262.4131,"EPHEMERIS_TYPE":0,"CLASSIFICATION_TYPE":"U","NORAD_CAT_ID":61569,"ELEMENT_SET_NO":999,"REV_AT_EPOCH":8197,"BSTAR":0.00012797,"MEAN_MOTION_DOT":1.01e-6,"MEAN_MOTION_DDOT":0},{"OBJECT_NAME":"QIANFAN-37","OBJECT_ID":"2024-232B","EPOCH":"2026-03-26T11:01:41.084256","MEAN_MOTION":13.51008894,"ECCENTRICITY":0.0002407,"INCLINATION":89.0087,"RA_OF_ASC_NODE":30.8662,"ARG_OF_PERICENTER":92.9497,"MEAN_ANOMALY":267.1929,"EPHEMERIS_TYPE":0,"CLASSIFICATION_TYPE":"U","NORAD_CAT_ID":62238,"ELEMENT_SET_NO":999,"REV_AT_EPOCH":11317,"BSTAR":0.00015542,"MEAN_MOTION_DOT":1.12e-6,"MEAN_MOTION_DDOT":0},{"OBJECT_NAME":"QIANFAN-38","OBJECT_ID":"2024-232C","EPOCH":"2026-03-26T11:37:10.730208","MEAN_MOTION":13.51007342,"ECCENTRICITY":0.0012346,"INCLINATION":89.0094,"RA_OF_ASC_NODE":30.7866,"ARG_OF_PERICENTER":255.385,"MEAN_ANOMALY":104.5932,"EPHEMERIS_TYPE":0,"CLASSIFICATION_TYPE":"U","NORAD_CAT_ID":62239,"ELEMENT_SET_NO":999,"REV_AT_EPOCH":11323,"BSTAR":0.00014027,"MEAN_MOTION_DOT":1.02e-6,"MEAN_MOTION_DDOT":0},{"OBJECT_NAME":"QIANFAN-39","OBJECT_ID":"2024-232D","EPOCH":"2026-03-26T12:42:31.564800","MEAN_MOTION":14.2545671,"ECCENTRICITY":0.0018523,"INCLINATION":89.0088,"RA_OF_ASC_NODE":25.4509,"ARG_OF_PERICENTER":96.4779,"MEAN_ANOMALY":263.8523,"EPHEMERIS_TYPE":0,"CLASSIFICATION_TYPE":"U","NORAD_CAT_ID":62240,"ELEMENT_SET_NO":999,"REV_AT_EPOCH":11617,"BSTAR":0.00019963,"MEAN_MOTION_DOT":4.87e-6,"MEAN_MOTION_DDOT":0},{"OBJECT_NAME":"QIANFAN-40","OBJECT_ID":"2024-232E","EPOCH":"2026-03-26T12:24:35.166816","MEAN_MOTION":13.51006905,"ECCENTRICITY":0.0011394,"INCLINATION":89.0122,"RA_OF_ASC_NODE":30.397,"ARG_OF_PERICENTER":264.8131,"MEAN_ANOMALY":95.172,"EPHEMERIS_TYPE":0,"CLASSIFICATION_TYPE":"U","NORAD_CAT_ID":62241,"ELEMENT_SET_NO":999,"REV_AT_EPOCH":11360,"BSTAR":0.000162,"MEAN_MOTION_DOT":1.16e-6,"MEAN_MOTION_DDOT":0},{"OBJECT_NAME":"QIANFAN-41","OBJECT_ID":"2024-232F","EPOCH":"2026-03-26T12:36:28.217376","MEAN_MOTION":13.51008383,"ECCENTRICITY":0.0011782,"INCLINATION":89.0092,"RA_OF_ASC_NODE":30.7322,"ARG_OF_PERICENTER":250.5459,"MEAN_ANOMALY":109.4419,"EPHEMERIS_TYPE":0,"CLASSIFICATION_TYPE":"U","NORAD_CAT_ID":62242,"ELEMENT_SET_NO":999,"REV_AT_EPOCH":11326,"BSTAR":0.0001528,"MEAN_MOTION_DOT":1.11e-6,"MEAN_MOTION_DDOT":0},{"OBJECT_NAME":"QIANFAN-42","OBJECT_ID":"2024-232G","EPOCH":"2026-03-26T12:33:35.850240","MEAN_MOTION":14.24549317,"ECCENTRICITY":0.0017288,"INCLINATION":89.0086,"RA_OF_ASC_NODE":25.5142,"ARG_OF_PERICENTER":101.8261,"MEAN_ANOMALY":258.4872,"EPHEMERIS_TYPE":0,"CLASSIFICATION_TYPE":"U","NORAD_CAT_ID":62243,"ELEMENT_SET_NO":999,"REV_AT_EPOCH":11614,"BSTAR":0.00019074,"MEAN_MOTION_DOT":4.58e-6,"MEAN_MOTION_DDOT":0},{"OBJECT_NAME":"QIANFAN-43","OBJECT_ID":"2024-232H","EPOCH":"2026-03-26T12:30:28.795968","MEAN_MOTION":13.51008319,"ECCENTRICITY":0.0013288,"INCLINATION":89.0096,"RA_OF_ASC_NODE":30.8025,"ARG_OF_PERICENTER":256.7723,"MEAN_ANOMALY":103.1946,"EPHEMERIS_TYPE":0,"CLASSIFICATION_TYPE":"U","NORAD_CAT_ID":62244,"ELEMENT_SET_NO":999,"REV_AT_EPOCH":8187,"BSTAR":0.00014962,"MEAN_MOTION_DOT":1.08e-6,"MEAN_MOTION_DDOT":0},{"OBJECT_NAME":"QIANFAN-44","OBJECT_ID":"2024-232J","EPOCH":"2026-03-26T12:12:46.069056","MEAN_MOTION":13.51006272,"ECCENTRICITY":0.0011508,"INCLINATION":89.0095,"RA_OF_ASC_NODE":30.6129,"ARG_OF_PERICENTER":253.2581,"MEAN_ANOMALY":106.7308,"EPHEMERIS_TYPE":0,"CLASSIFICATION_TYPE":"U","NORAD_CAT_ID":62245,"ELEMENT_SET_NO":999,"REV_AT_EPOCH":11334,"BSTAR":0.00015624,"MEAN_MOTION_DOT":1.13e-6,"MEAN_MOTION_DDOT":0},{"OBJECT_NAME":"QIANFAN-45","OBJECT_ID":"2024-232K","EPOCH":"2026-03-26T11:25:20.014176","MEAN_MOTION":13.51010026,"ECCENTRICITY":0.0012181,"INCLINATION":89.0099,"RA_OF_ASC_NODE":30.7663,"ARG_OF_PERICENTER":252.9767,"MEAN_ANOMALY":107.0049,"EPHEMERIS_TYPE":0,"CLASSIFICATION_TYPE":"U","NORAD_CAT_ID":62246,"ELEMENT_SET_NO":999,"REV_AT_EPOCH":11326,"BSTAR":0.00013288,"MEAN_MOTION_DOT":9.8e-7,"MEAN_MOTION_DDOT":0},{"OBJECT_NAME":"QIANFAN-46","OBJECT_ID":"2024-232L","EPOCH":"2026-03-26T12:00:52.718688","MEAN_MOTION":13.51006892,"ECCENTRICITY":0.0012234,"INCLINATION":89.0094,"RA_OF_ASC_NODE":30.8285,"ARG_OF_PERICENTER":259.4143,"MEAN_ANOMALY":100.563,"EPHEMERIS_TYPE":0,"CLASSIFICATION_TYPE":"U","NORAD_CAT_ID":62247,"ELEMENT_SET_NO":999,"REV_AT_EPOCH":11322,"BSTAR":0.00015914,"MEAN_MOTION_DOT":1.15e-6,"MEAN_MOTION_DDOT":0},{"OBJECT_NAME":"QIANFAN-47","OBJECT_ID":"2024-232M","EPOCH":"2026-03-26T12:06:48.176064","MEAN_MOTION":13.51006701,"ECCENTRICITY":0.0012649,"INCLINATION":89.0091,"RA_OF_ASC_NODE":30.757,"ARG_OF_PERICENTER":258.3552,"MEAN_ANOMALY":101.618,"EPHEMERIS_TYPE":0,"CLASSIFICATION_TYPE":"U","NORAD_CAT_ID":62248,"ELEMENT_SET_NO":999,"REV_AT_EPOCH":11325,"BSTAR":0.00015563,"MEAN_MOTION_DOT":1.12e-6,"MEAN_MOTION_DDOT":0},{"OBJECT_NAME":"QIANFAN-48","OBJECT_ID":"2024-232N","EPOCH":"2026-03-26T13:00:07.956000","MEAN_MOTION":13.51006805,"ECCENTRICITY":0.001491,"INCLINATION":89.0094,"RA_OF_ASC_NODE":30.7592,"ARG_OF_PERICENTER":261.2617,"MEAN_ANOMALY":98.6846,"EPHEMERIS_TYPE":0,"CLASSIFICATION_TYPE":"U","NORAD_CAT_ID":62249,"ELEMENT_SET_NO":999,"REV_AT_EPOCH":11326,"BSTAR":0.00015811,"MEAN_MOTION_DOT":1.14e-6,"MEAN_MOTION_DDOT":0},{"OBJECT_NAME":"QIANFAN-49","OBJECT_ID":"2024-232P","EPOCH":"2026-03-26T12:42:23.304096","MEAN_MOTION":13.51006064,"ECCENTRICITY":0.0011982,"INCLINATION":89.0093,"RA_OF_ASC_NODE":30.7721,"ARG_OF_PERICENTER":255.007,"MEAN_ANOMALY":104.9755,"EPHEMERIS_TYPE":0,"CLASSIFICATION_TYPE":"U","NORAD_CAT_ID":62250,"ELEMENT_SET_NO":999,"REV_AT_EPOCH":8185,"BSTAR":0.00014995,"MEAN_MOTION_DOT":1.09e-6,"MEAN_MOTION_DDOT":0},{"OBJECT_NAME":"QIANFAN-50","OBJECT_ID":"2024-232Q","EPOCH":"2026-03-26T11:31:14.731104","MEAN_MOTION":13.51007095,"ECCENTRICITY":0.0013638,"INCLINATION":89.0099,"RA_OF_ASC_NODE":30.7908,"ARG_OF_PERICENTER":256.8092,"MEAN_ANOMALY":103.1538,"EPHEMERIS_TYPE":0,"CLASSIFICATION_TYPE":"U","NORAD_CAT_ID":62251,"ELEMENT_SET_NO":999,"REV_AT_EPOCH":8187,"BSTAR":0.00015211,"MEAN_MOTION_DOT":1.1e-6,"MEAN_MOTION_DDOT":0},{"OBJECT_NAME":"QIANFAN-51","OBJECT_ID":"2024-232R","EPOCH":"2026-03-26T12:54:13.601088","MEAN_MOTION":13.5100768,"ECCENTRICITY":0.0011139,"INCLINATION":89.0093,"RA_OF_ASC_NODE":30.7726,"ARG_OF_PERICENTER":260.9631,"MEAN_ANOMALY":99.0259,"EPHEMERIS_TYPE":0,"CLASSIFICATION_TYPE":"U","NORAD_CAT_ID":62252,"ELEMENT_SET_NO":999,"REV_AT_EPOCH":8187,"BSTAR":0.00014933,"MEAN_MOTION_DOT":1.08e-6,"MEAN_MOTION_DDOT":0}]
